NORAD_CAT_ID,OBJECT_NAME,OBJECT_TYPE,EPOCH,MEAN_MOTION,ECCENTRICITY,INCLINATION,RA_OF_ASC_NODE,ARG_OF_PERICENTER,MEAN_ANOMALY,BSTAR,MEAN_MOTION_DOT,MEAN_MOTION_DDOT,TLE_LINE0,TLE_LINE1,TLE_LINE2,SEMIMAJOR_AXIS,PERIOD,APOGEE,PERIGEE,DECAYED
52270.0,STARLINK-3804,PAYLOAD,2024-04-13 02:22:48,15.08846536,0.0001425,53.2197,351.7734,91.8729,268.2426,0.00011002,1.464e-05,0.0,0 STARLINK-3804,1 52270U 22041K   24104.09917452  .00001464  00000-0  11002-3 0  9995,2 52270  53.2197 351.7734 0001425  91.8729 268.2426 15.08846536110562,6917.86,95.437,540.711,538.74,0.0
52270.0,STARLINK-3804,PAYLOAD,2024-04-13 21:27:26,15.08841034,0.0001542,53.2201,348.204,97.62,262.4967,1.9859e-05,2.8e-07,0.0,0 STARLINK-3804,1 52270U 22041K   24104.89405971  .00000028  00000-0  19859-4 0  9995,2 52270  53.2201 348.2040 0001542  97.6200 262.4967 15.08841034110684,6917.877,95.437,540.809,538.675,0.0
52270.0,STARLINK-3804,PAYLOAD,2024-04-14 21:18:13,15.08840178,0.0001511,53.2196,343.7412,99.8044,260.3119,8.4127e-05,1.051e-05,0.0,0 STARLINK-3804,1 52270U 22041K   24105.88765831  .00001051  00000-0  84127-4 0  9996,2 52270  53.2196 343.7412 0001511  99.8044 260.3119 15.08840178109622,6917.88,95.438,540.79,538.7,0.0
52270.0,STARLINK-3804,PAYLOAD,2024-04-15 02:04:23,15.0882295,0.0001644,53.22,342.8497,112.326,247.7906,0.00040423,6.148e-05,0.0,0 STARLINK-3804,1 52270U 22041K   24106.08637995  .00006148  00000-0  40423-3 0  9990,2 52270  53.2200 342.8497 0001644 112.3260 247.7906 15.08822950110868,6917.933,95.439,540.935,538.66,0.0
52270.0,STARLINK-3804,PAYLOAD,2024-04-15 21:09:00,15.08842993,0.0001575,53.2198,339.281,105.2464,254.8703,0.00011196,1.494e-05,0.0,0 STARLINK-3804,1 52270U 22041K   24106.88125597  .00001494  00000-0  11196-3 0  9992,2 52270  53.2198 339.2810 0001575 105.2464 254.8703 15.08842993110989,6917.871,95.437,540.826,538.647,0.0
52270.0,STARLINK-3804,PAYLOAD,2024-04-16 08:16:41,15.08853994,0.0001194,53.2189,337.2061,83.5578,276.555,0.00013011,1.784e-05,0.0,0 STARLINK-3804,1 52270U 22041K   24107.34492789  .00001784  00000-0  13011-3 0  9994,2 52270  53.2189 337.2061 0001194  83.5578 276.5550 15.08853994111059,6917.838,95.437,540.529,538.877,0.0
52270.0,STARLINK-3804,PAYLOAD,2024-04-16 20:59:47,15.08845132,0.0001699,53.219,334.825,89.3538,270.7649,-2.6655e-05,-7.12e-06,0.0,0 STARLINK-3804,1 52270U 22041K   24107.87485378 -.00000712  00000-0 -26655-4 0  9999,2 52270  53.2190 334.8250 0001699  89.3538 270.7649 15.08845132111133,6917.865,95.437,540.905,538.554,0.0
52270.0,STARLINK-3804,PAYLOAD,2024-04-16 22:35:09,15.08855796,0.0001171,53.2186,334.5266,96.6959,263.4166,0.00015966,2.255e-05,0.0,0 STARLINK-3804,1 52270U 22041K   24107.94108597  .00002255  00000-0  15966-3 0  9996,2 52270  53.2186 334.5266 0001171  96.6959 263.4166 15.08855796109930,6917.832,95.437,540.507,538.887,0.0
52270.0,STARLINK-3804,PAYLOAD,2024-04-17 00:10:32,15.08857756,0.0001171,53.2183,334.2289,105.9863,254.1258,0.00017714,2.534e-05,0.0,0 STARLINK-3804,1 52270U 22041K   24108.00732350  .00002534  00000-0  17714-3 0  9997,2 52270  53.2183 334.2289 0001171 105.9863 254.1258 15.08857756111151,6917.826,95.436,540.501,538.881,0.0
52270.0,STARLINK-3804,PAYLOAD,2024-04-17 19:15:11,15.08830808,0.0001944,53.2167,330.6619,136.6053,223.5092,-7.8285e-05,-1.534e-05,0.0,0 STARLINK-3804,1 52270U 22041K   24108.80222021 -.00001534  00000-0 -78285-4 0  9996,2 52270  53.2167 330.6619 0001944 136.6053 223.5092 15.08830808111278,6917.908,95.438,541.118,538.429,0.0
52270.0,STARLINK-3804,PAYLOAD,2024-04-17 20:50:34,15.08839074,0.0001929,53.2172,330.3648,139.6094,220.5041,-0.00026906,-4.568e-05,0.0,0 STARLINK-3804,1 52270U 22041K   24108.86845683 -.00004568  00000-0 -26906-3 0  9999,2 52270  53.2172 330.3648 0001929 139.6094 220.5041 15.08839074110076,6917.883,95.438,541.083,538.414,0.0
52270.0,STARLINK-3804,PAYLOAD,2024-04-18 00:01:21,15.0884407,0.0001381,53.2182,329.7687,78.3641,281.7506,-0.00021082,-3.642e-05,0.0,0 STARLINK-3804,1 52270U 22041K   24109.00093817 -.00003642  00000-0 -21082-3 0  9992,2 52270  53.2182 329.7687 0001381  78.3641 281.7506 15.08844070111305,6917.868,95.437,540.688,538.778,0.0
52270.0,STARLINK-3804,PAYLOAD,2024-04-18 20:41:22,15.08838721,0.0001981,53.2201,325.8986,55.4231,304.6948,9.6637e-05,1.25e-05,0.0,0 STARLINK-3804,1 52270U 22041K   24109.86206897  .00001250  00000-0  96637-4 0  9990,2 52270  53.2201 325.8986 0001981  55.4231 304.6948 15.08838721111438,6917.884,95.438,541.12,538.379,0.0
52270.0,STARLINK-3804,PAYLOAD,2024-04-19 14:10:37,15.08825062,0.0001725,53.2197,322.6325,75.9794,284.139,0.00068039,0.00010553,0.0,0 STARLINK-3804,1 52270U 22041K   24110.59071684  .00010553  00000-0  68039-3 0  9996,2 52270  53.2197 322.6325 0001725  75.9794 284.1390 15.08825062110336,6917.926,95.438,540.984,538.598,0.0
52270.0,STARLINK-3804,PAYLOAD,2024-04-19 20:32:09,15.08854567,0.0001579,53.2192,321.4449,88.6246,271.4927,0.00035284,5.334e-05,0.0,0 STARLINK-3804,1 52270U 22041K   24110.85566218  .00005334  00000-0  35284-3 0  9994,2 52270  53.2192 321.4449 0001579  88.6246 271.4927 15.08854567111580,6917.836,95.437,540.793,538.609,0.0
52270.0,STARLINK-3804,PAYLOAD,2024-04-19 23:42:55,15.08862041,0.0001529,53.2186,320.8452,99.8502,260.2663,0.00055311,8.531e-05,0.0,0 STARLINK-3804,1 52270U 22041K   24110.98814014  .00008531  00000-0  55311-3 0  9993,2 52270  53.2186 320.8452 0001529  99.8502 260.2663 15.08862041110391,6917.813,95.436,540.736,538.62,0.0
52270.0,STARLINK-3804,PAYLOAD,2024-04-20 20:22:56,15.08851594,0.0001562,53.2182,316.9872,86.5007,273.6164,0.00015377,2.161e-05,0.0,0 STARLINK-3804,1 52270U 22041K   24111.84926007  .00002161  00000-0  15377-3 0  9996,2 52270  53.2182 316.9872 0001562  86.5007 273.6164 15.08851594111733,6917.845,95.437,540.791,538.629,0.0
52270.0,STARLINK-3804,PAYLOAD,2024-04-21 13:52:10,15.08837761,0.0001456,53.218,313.7097,105.8913,254.224,-0.00017314,-3.042e-05,0.0,0 STARLINK-3804,1 52270U 22041K   24112.57790373 -.00003042  00000-0 -17314-3 0  9996,2 52270  53.2180 313.7097 0001456 105.8913 254.2240 15.08837761110636,6917.887,95.438,540.759,538.745,0.0
52270.0,STARLINK-3804,PAYLOAD,2024-04-21 20:13:43,15.08831972,0.000136,53.2174,312.52,88.8379,271.2769,-0.00020118,-3.488e-05,0.0,0 STARLINK-3804,1 52270U 22041K   24112.84286659 -.00003488  00000-0 -20118-3 0  9993,2 52270  53.2174 312.5200 0001360  88.8379 271.2769 15.08831972111883,6917.905,95.438,540.711,538.829,0.0
52270.0,STARLINK-3804,PAYLOAD,2024-04-21 23:24:30,15.08832493,0.000138,53.2173,311.9259,91.3205,268.7946,-0.00013693,-2.466e-05,0.0,0 STARLINK-3804,1 52270U 22041K   24112.97534849 -.00002466  00000-0 -13693-3 0  9999,2 52270  53.2173 311.9259 0001380  91.3205 268.7946 15.08832493110693,6917.903,95.438,540.723,538.814,0.0
52270.0,STARLINK-3804,PAYLOAD,2024-04-22 18:29:07,15.08844864,0.0001304,53.2176,308.3592,95.6247,264.4894,0.00028342,4.226e-05,0.0,0 STARLINK-3804,1 52270U 22041K   24113.77022785  .00004226  00000-0  28342-3 0  9990,2 52270  53.2176 308.3592 0001304  95.6247 264.4894 15.08844864112024,6917.866,95.437,540.633,538.828,0.0
52270.0,STARLINK-3804,PAYLOAD,2024-04-23 19:55:18,15.08839585,0.0001618,53.2176,303.6032,60.2178,299.8975,0.00026574,3.944e-05,0.0,0 STARLINK-3804,1 52270U 22041K   24114.83007857  .00003944  00000-0  26574-3 0  9992,2 52270  53.2176 303.6032 0001618  60.2178 299.8975 15.08839585112183,6917.882,95.438,540.866,538.627,0.0
52270.0,STARLINK-3804,PAYLOAD,2024-04-23 21:30:41,15.08846415,0.0001446,53.2177,303.3061,103.9408,256.1745,0.00034801,5.256e-05,0.0,0 STARLINK-3804,1 52270U 22041K   24114.89631352  .00005256  00000-0  34801-3 0  9991,2 52270  53.2177 303.3061 0001446 103.9408 256.1745 15.08846415110980,6917.861,95.437,540.726,538.725,0.0
52270.0,STARLINK-3804,PAYLOAD,2024-04-23 23:06:04,15.08849977,0.000133,53.217,303.0022,102.3396,257.7745,0.00040255,6.126e-05,0.0,0 STARLINK-3804,1 52270U 22041K   24114.96255161  .00006126  00000-0  40255-3 0  9996,2 52270  53.2170 303.0022 0001330 102.3396 257.7745 15.08849977112208,6917.85,95.437,540.635,538.795,0.0
52270.0,STARLINK-3804,PAYLOAD,2024-04-24 11:49:10,15.08836167,0.0002033,53.2158,300.6198,122.2408,237.8781,7.8958e-05,9.69e-06,0.0,0 STARLINK-3804,1 52270U 22041K   24115.49247931  .00000969  00000-0  78958-4 0  9992,2 52270  53.2158 300.6198 0002033 122.2408 237.8781 15.08836167112281,6917.892,95.438,541.164,538.351,0.0
52270.0,STARLINK-3804,PAYLOAD,2024-04-24 21:21:28,15.08844943,0.0001951,53.2168,298.8449,108.4821,251.6383,0.00042817,6.534e-05,0.0,0 STARLINK-3804,1 52270U 22041K   24115.88991470  .00006534  00000-0  42817-3 0  9997,2 52270  53.2168 298.8449 0001951 108.4821 251.6383 15.08844943111138,6917.865,95.437,541.08,538.381,0.0
52270.0,STARLINK-3804,PAYLOAD,2024-04-25 11:39:57,15.08832132,0.0001002,53.2168,296.1627,134.2412,225.8663,-9.0655e-06,-4.32e-06,0.0,0 STARLINK-3804,1 52270U 22041K   24116.48607740 -.00000432  00000-0 -90655-5 0  9996,2 52270  53.2168 296.1627 0001002 134.2412 225.8663 15.08832132112432,6917.904,95.438,540.463,539.076,0.0
52270.0,STARLINK-3804,PAYLOAD,2024-04-25 16:26:06,15.08845267,0.0002227,53.2169,295.2737,134.1312,225.9863,0.00019909,2.882e-05,0.0,0 STARLINK-3804,1 52270U 22041K   24116.68479449  .00002882  00000-0  19909-3 0  9991,2 52270  53.2169 295.2737 0002227 134.1312 225.9863 15.08845267112462,6917.864,95.437,541.27,538.189,0.0
52270.0,STARLINK-3804,PAYLOAD,2024-04-26 11:30:44,15.08841579,0.0001503,53.2166,291.7115,65.776,294.3389,0.00031462,4.723e-05,0.0,0 STARLINK-3804,1 52270U 22041K   24117.47968167  .00004723  00000-0  31462-3 0  9993,2 52270  53.2166 291.7115 0001503  65.7760 294.3389 15.08841579112580,6917.876,95.437,540.78,538.701,0.0
52270.0,STARLINK-3804,PAYLOAD,2024-04-26 17:52:16,15.08843417,0.0001341,53.2168,290.5192,89.3213,270.7933,0.00035296,5.334e-05,0.0,0 STARLINK-3804,1 52270U 22041K   24117.74464006  .00005334  00000-0  35296-3 0  9994,2 52270  53.2168 290.5192 0001341  89.3213 270.7933 15.08843417111416,6917.87,95.437,540.663,538.807,0.0
